{"fetched_at":"2026-03-29T02:12:04Z","count":15717,"tles":[{"name":"STARLINK-2396","line1":"1 47815U 21018AE  26087.59297335  .00000290  00000+0  21909-4 0  9998","line2":"2 47815  53.1602 154.8888 0001041  62.8679 297.2428 15.30196513279613","category":"Starlink"}]}