{
  "norad_id": 47815,
  "name": "STARLINK-2396",
  "history": [
    {
      "epoch": "2026-03-28T14:13:52.897440Z",
      "apogee_km": 475.93891602683107,
      "perigee_km": 474.5120459582886,
      "latitude_deg": 1.6077122742925313e-05,
      "longitude_deg": 115.40720896778863,
      "height_km": 475.7986854897581,
      "semi_major_axis_km": 6853.3624809925595,
      "eccentricity": 0.0001041,
      "inclination_deg": 53.1602,
      "raan_deg": 154.8888,
      "arg_perigee_deg": 62.8679,
      "mean_anomaly_deg": 297.2428,
      "mean_motion_rev_day": 15.30196513
    }
  ]
}